NORAD_CAT_ID,OBJECT_NAME,OBJECT_TYPE,EPOCH,MEAN_MOTION,ECCENTRICITY,INCLINATION,RA_OF_ASC_NODE,ARG_OF_PERICENTER,MEAN_ANOMALY,BSTAR,MEAN_MOTION_DOT,MEAN_MOTION_DDOT,TLE_LINE0,TLE_LINE1,TLE_LINE2,SEMIMAJOR_AXIS,PERIOD,APOGEE,PERIGEE,DECAYED
54758.0,STARLINK-5464,PAYLOAD,2023-07-28 22:51:27,15.08846532,0.0001288,53.2167,5.2993,95.9426,264.1713,0.00024448,3.606e-05,0.0,0 STARLINK-5464,1 54758U 22175A   23209.95239818  .00003606  00000-0  24448-3 0  9997,2 54758  53.2167   5.2993 0001288  95.9426 264.1713 15.08846532 32413,6917.86,95.437,540.616,538.834,0.0
54758.0,STARLINK-5464,PAYLOAD,2023-07-29 09:59:09,15.08836438,9.23e-05,53.217,3.219,95.8536,264.2562,4.7858e-05,4.74e-06,0.0,0 STARLINK-5464,1 54758U 22175A   23210.41608327  .00000474  00000-0  47858-4 0  9996,2 54758  53.2170   3.2190 0000923  95.8536 264.2562 15.08836438 32484,6917.891,95.438,540.395,539.118,0.0
54758.0,STARLINK-5464,PAYLOAD,2023-07-29 17:56:04,15.08851813,6.43e-05,53.2168,1.7328,106.9288,253.1775,0.00018637,2.681e-05,0.0,0 STARLINK-5464,1 54758U 22175A   23210.74727471  .00002681  00000-0  18637-3 0  9998,2 54758  53.2168   1.7328 0000643 106.9288 253.1775 15.08851813 32537,6917.844,95.437,540.154,539.264,0.0
54758.0,STARLINK-5464,PAYLOAD,2023-07-30 09:49:56,15.08842235,0.0001177,53.2163,358.7575,97.5314,262.5812,0.00014744,2.06e-05,0.0,0 STARLINK-5464,1 54758U 22175A   23211.40968133  .00002060  00000-0  14744-3 0  9990,2 54758  53.2163 358.7575 0001177  97.5314 262.5812 15.08842235 32634,6917.874,95.437,540.553,538.924,0.0
54758.0,STARLINK-5464,PAYLOAD,2023-07-31 17:37:39,15.08846838,0.0001185,53.2176,352.8114,80.8377,279.2749,0.00019487,2.815e-05,0.0,0 STARLINK-5464,1 54758U 22175A   23212.73447944  .00002815  00000-0  19487-3 0  9996,2 54758  53.2176 352.8114 0001185  80.8377 279.2749 15.08846838 32834,6917.859,95.437,540.544,538.905,0.0
54758.0,STARLINK-5464,PAYLOAD,2023-08-01 15:53:03,15.08841425,0.0001179,53.2183,348.6472,91.6148,268.4979,8.9913e-05,1.143e-05,0.0,0 STARLINK-5464,1 54758U 22175A   23213.66184257  .00001143  00000-0  89913-4 0  9999,2 54758  53.2183 348.6472 0001179  91.6148 268.4979 15.08841425 32978,6917.876,95.437,540.557,538.925,0.0
54758.0,STARLINK-5464,PAYLOAD,2023-08-03 09:13:04,15.08843263,0.000123,53.2182,340.9189,95.2478,264.8655,0.00012607,1.719e-05,0.0,0 STARLINK-5464,1 54758U 22175A   23215.38408016  .00001719  00000-0  12607-3 0  9996,2 54758  53.2182 340.9189 0001230  95.2478 264.8655 15.08843263 33234,6917.87,95.437,540.586,538.885,0.0
54758.0,STARLINK-5464,PAYLOAD,2023-08-03 18:45:22,15.08852141,0.0001186,53.2181,339.1344,94.954,265.1587,0.00021634,3.158e-05,0.0,0 STARLINK-5464,1 54758U 22175A   23215.78151397  .00003158  00000-0  21634-3 0  9996,2 54758  53.2181 339.1344 0001186  94.9540 265.1587 15.08852141 33291,6917.843,95.437,540.529,538.888,0.0
54758.0,STARLINK-5464,PAYLOAD,2023-08-04 09:03:51,15.08834873,0.0001192,53.217,336.4568,87.6775,272.4354,-0.00014345,-2.57e-05,0.0,0 STARLINK-5464,1 54758U 22175A   23216.37768301 -.00002570  00000-0 -14345-3 0  9991,2 54758  53.2170 336.4568 0001192  87.6775 272.4354 15.08834873 33388,6917.896,95.438,540.586,538.936,0.0
54758.0,STARLINK-5464,PAYLOAD,2023-08-05 07:19:15,15.08842362,0.000114,53.2166,332.2935,89.7013,270.411,8.1773e-05,1.014e-05,0.0,0 STARLINK-5464,1 54758U 22175A   23217.30504291  .00001014  00000-0  81773-4 0  9991,2 54758  53.2166 332.2935 0001140  89.7013 270.4110 15.08842362 33522,6917.873,95.437,540.527,538.95,0.0
54758.0,STARLINK-5464,PAYLOAD,2023-08-05 15:16:10,15.0886294,0.0001144,53.2164,330.8067,87.5136,272.5987,0.00055677,8.59e-05,0.0,0 STARLINK-5464,1 54758U 22175A   23217.63623435  .00008590  00000-0  55677-3 0  9998,2 54758  53.2164 330.8067 0001144  87.5136 272.5987 15.08862940 33570,6917.81,95.436,540.467,538.884,0.0
54758.0,STARLINK-5464,PAYLOAD,2023-08-06 00:48:30,15.08840841,0.0001321,53.2172,329.0188,100.0215,260.0926,0.00016881,2.4e-05,0.0,0 STARLINK-5464,1 54758U 22175A   23218.03368156  .00002400  00000-0  16881-3 0  9997,2 54758  53.2172 329.0188 0001321 100.0215 260.0926 15.08840841 33637,6917.878,95.438,540.657,538.829,0.0
54758.0,STARLINK-5464,PAYLOAD,2023-08-06 07:10:03,15.08815238,0.0001066,53.2161,327.8334,99.2744,260.8368,-0.00032304,-5.422e-05,0.0,0 STARLINK-5464,1 54758U 22175A   23218.29865277 -.00005422  00000-0 -32304-3 0  9998,2 54758  53.2161 327.8334 0001066  99.2744 260.8368 15.08815238 33670,6917.956,95.439,540.559,539.084,0.0
54758.0,STARLINK-5464,PAYLOAD,2023-08-06 13:31:36,15.08823335,0.0001109,53.2159,326.6454,98.0448,262.067,-9.8889e-05,-1.86e-05,0.0,0 STARLINK-5464,1 54758U 22175A   23218.56361408 -.00001860  00000-0 -98889-4 0  9998,2 54758  53.2159 326.6454 0001109  98.0448 262.0670 15.08823335 33715,6917.931,95.439,540.564,539.029,0.0
54758.0,STARLINK-5464,PAYLOAD,2023-08-07 07:00:51,15.08833258,0.0001157,53.2156,323.3731,105.7179,254.3941,0.0010484,0.00016434,0.0,0 STARLINK-5464,1 54758U 22175A   23219.29225981  .00016434  00000-0  10484-2 0  9998,2 54758  53.2156 323.3731 0001157 105.7179 254.3941 15.08833258 33826,6917.901,95.438,540.566,538.966,0.0
54758.0,STARLINK-5464,PAYLOAD,2023-08-07 13:22:23,15.08851433,0.0001098,53.2154,322.1843,101.6245,258.487,0.0013708,0.00021602,0.0,0 STARLINK-5464,1 54758U 22175A   23219.55721770  .00021602  00000-0  13708-2 0  9999,2 54758  53.2154 322.1843 0001098 101.6245 258.4870 15.08851433 33863,6917.845,95.437,540.47,538.951,0.0
54758.0,STARLINK-5464,PAYLOAD,2023-08-08 00:30:05,15.0885204,0.000119,53.2147,320.1008,106.8746,253.2377,0.00085272,0.00013314,0.0,0 STARLINK-5464,1 54758U 22175A   23220.02089616  .00013314  00000-0  85272-3 0  9996,2 54758  53.2147 320.1008 0001190 106.8746 253.2377 15.08852040 33930,6917.844,95.437,540.532,538.885,0.0
54758.0,STARLINK-5464,PAYLOAD,2023-08-08 13:13:10,15.08859282,0.0001112,53.2157,317.7241,92.2964,267.8156,0.00069918,0.00010863,0.0,0 STARLINK-5464,1 54758U 22175A   23220.55081246  .00010863  00000-0  69918-3 0  9990,2 54758  53.2157 317.7241 0001112  92.2964 267.8156 15.08859282 34017,6917.821,95.436,540.456,538.917,0.0
54758.0,STARLINK-5464,PAYLOAD,2023-08-09 06:42:24,15.08843897,0.0001066,53.2149,314.4512,82.208,277.9033,0.00020289,2.943e-05,0.0,0 STARLINK-5464,1 54758U 22175A   23221.27945339  .00002943  00000-0  20289-3 0  9990,2 54758  53.2149 314.4512 0001066  82.2080 277.9033 15.08843897 34122,6917.868,95.437,540.471,538.996,0.0
54758.0,STARLINK-5464,PAYLOAD,2023-08-10 09:43:58,15.08842118,0.0001058,53.2162,309.3976,96.4008,263.7104,8.0751e-05,9.98e-06,0.0,0 STARLINK-5464,1 54758U 22175A   23222.40553413  .00000998  00000-0  80751-4 0  9993,2 54758  53.2162 309.3976 0001058  96.4008 263.7104 15.08842118 34297,6917.874,95.437,540.471,539.007,0.0
54758.0,STARLINK-5464,PAYLOAD,2023-08-11 11:10:08,15.0884028,0.0001168,53.2166,304.641,98.7105,261.4019,0.00012691,1.733e-05,0.0,0 STARLINK-5464,1 54758U 22175A   23223.46537505  .00001733  00000-0  12691-3 0  9999,2 54758  53.2166 304.6410 0001168  98.7105 261.4019 15.08840280 34453,6917.88,95.438,540.553,538.937,0.0
54758.0,STARLINK-5464,PAYLOAD,2023-08-12 22:08:37,15.08845025,0.0001172,53.2165,298.0988,84.9238,275.1888,9.7915e-05,1.271e-05,0.0,0 STARLINK-5464,1 54758U 22175A   23224.92265203  .00001271  00000-0  97915-4 0  9994,2 54758  53.2165 298.0988 0001172  84.9238 275.1888 15.08845025 34679,6917.865,95.437,540.541,538.919,0.0
54758.0,STARLINK-5464,PAYLOAD,2023-08-13 21:59:24,15.08836678,2.8e-05,53.2165,293.6381,87.9127,272.1897,-9.9051e-06,-4.45e-06,0.0,0 STARLINK-5464,1 54758U 22175A   23225.91625329 -.00000445  00000-0 -99051-5 0  9991,2 54758  53.2165 293.6381 0000280  87.9127 272.1897 15.08836678 34824,6917.891,95.438,539.949,539.562,0.0
54758.0,STARLINK-5464,PAYLOAD,2023-08-15 10:33:16,15.08844946,0.0001267,53.2151,286.798,80.9745,279.139,0.00016408,2.325e-05,0.0,0 STARLINK-5464,1 54758U 22175A   23227.43977430  .00002325  00000-0  16408-3 0  9993,2 54758  53.2151 286.7980 0001267  80.9745 279.1390 15.08844946 35050,6917.865,95.437,540.607,538.854,0.0
54758.0,STARLINK-5464,PAYLOAD,2023-08-16 10:24:03,15.08840683,0.0001312,53.2162,282.3375,84.1436,275.9706,9.7523e-05,1.265e-05,0.0,0 STARLINK-5464,1 54758U 22175A   23228.43337695  .00001265  00000-0  97523-4 0  9997,2 54758  53.2162 282.3375 0001312  84.1436 275.9706 15.08840683 35202,6917.878,95.438,540.651,538.836,0.0
54758.0,STARLINK-5464,PAYLOAD,2023-08-17 19:47:09,15.08841768,0.0001466,53.2166,276.092,100.8423,259.2734,6.6753e-05,7.75e-06,0.0,0 STARLINK-5464,1 54758U 22175A   23229.82441528  .00000775  00000-0  66753-4 0  9998,2 54758  53.2166 276.0920 0001466 100.8423 259.2734 15.08841768 35418,6917.875,95.437,540.754,538.726,0.0
54758.0,STARLINK-5464,PAYLOAD,2023-08-18 08:30:15,15.08835817,0.0001453,53.2162,273.7126,102.6969,257.4185,5.1506e-05,5.32e-06,0.0,0 STARLINK-5464,1 54758U 22175A   23230.35434089  .00000532  00000-0  51506-4 0  9993,2 54758  53.2162 273.7126 0001453 102.6969 257.4185 15.08835817 35493,6917.893,95.438,540.763,538.753,0.0
54758.0,STARLINK-5464,PAYLOAD,2023-08-19 11:31:48,15.08840614,0.0001463,53.2161,268.6575,99.9787,260.137,6.7324e-05,7.84e-06,0.0,0 STARLINK-5464,1 54758U 22175A   23231.48041904  .00000784  00000-0  67324-4 0  9992,2 54758  53.2161 268.6575 0001463  99.9787 260.1370 15.08840614 35667,6917.879,95.438,540.756,538.731,0.0
54758.0,STARLINK-5464,PAYLOAD,2023-08-20 01:50:16,15.08835464,0.0001523,53.2167,265.9814,100.2784,259.838,5.8894e-05,6.49e-06,0.0,0 STARLINK-5464,1 54758U 22175A   23232.07658378  .00000649  00000-0  58894-4 0  9999,2 54758  53.2167 265.9814 0001523 100.2784 259.8380 15.08835464 35752,6917.894,95.438,540.813,538.706,0.0
54758.0,STARLINK-5464,PAYLOAD,2023-08-21 03:16:27,15.08838677,0.0001455,53.2157,261.223,91.0674,269.0485,6.0523e-05,6.75e-06,0.0,0 STARLINK-5464,1 54758U 22175A   23233.13642387  .00000675  00000-0  60523-4 0  9991,2 54758  53.2157 261.2230 0001455  91.0674 269.0485 15.08838677 35917,6917.884,95.438,540.756,538.743,0.0
